OBJECT_NAME,OBJECT_ID,EPOCH,MEAN_MOTION,ECCENTRICITY,INCLINATION,RA_OF_ASC_NODE,ARG_OF_PERICENTER,MEAN_ANOMALY,EPHEMERIS_TYPE,CLASSIFICATION_TYPE,NORAD_CAT_ID,ELEMENT_SET_NO,REV_AT_EPOCH,BSTAR,MEAN_MOTION_DOT,MEAN_MOTION_DDOT
KUIPER-00567,2026-140AL,2026-07-07T15:34:55.429824,15.38354476,.0012778,51.8778,299.6117,239.8856,120.0865,0,U,69626,999,438,.34047E-3,.12733E-3,0
KUIPER-00573,2026-140AM,2026-07-07T15:51:35.204832,15.37310895,.0009419,51.8783,299.6872,256.0055,103.9885,0,U,69627,999,438,.41025E-3,.14889E-3,0
CENTISPACE-1 GROUP 05 OBJECT J,2026-138J,2026-07-07T18:09:33.522336,14.15844526,.0009061,55.1385,205.1684,327.9500,32.0922,0,U,69636,999,290,-.12629E-3,-.403E-5,0
VICTUS HAZE PUMA,2026-142A,2026-07-07T21:01:40.393344,15.20813156,.0025211,97.4475,86.2642,293.2248,66.6333,0,U,69646,999,281,.14724E-3,.3202E-4,0
HOKUSHIN-1,1998-067YH,2026-07-07T10:21:31.120416,15.50745793,.00060998,51.6313,199.7545,301.0821,58.9569,0,U,69648,999,279,.30853726E-3,.1767E-3,0
STARLINK-37656,2026-143A,2026-07-07T18:00:02.998944,15.54568434,.0001628,97.2862,232.5619,72.0613,64.6964,0,U,69649,999,376,-.41077E-1,-.2371142E-1,0
STARLINK-37646,2026-143B,2026-07-07T18:00:02.998944,15.69903469,.0001516,97.2856,232.6685,57.2873,337.5028,0,U,69650,999,376,-.11155E-1,-.1200939E-1,0
STARLINK-37749,2026-143C,2026-07-07T18:00:02.998944,15.67154841,.0001547,97.2858,232.6719,64.6087,340.5587,0,U,69651,999,376,-.27972E-1,-.2593574E-1,0
STARLINK-37819,2026-143D,2026-07-07T18:00:02.998944,15.65033517,.0001426,97.2851,232.6569,97.1230,260.6917,0,U,69652,999,376,-.29221E-1,-.2500535E-1,0
STARLINK-37729,2026-143E,2026-07-07T18:00:02.998944,15.82077264,.0000928,97.2838,232.7023,149.5529,322.4752,0,U,69653,999,376,-.77456E-3,-.154623E-2,0
STARLINK-37838,2026-143F,2026-07-07T18:00:02.998944,15.73416309,.0001792,97.2853,232.6804,59.9933,5.0621,0,U,69654,999,376,-.22342E-1,-.2680343E-1,0
STARLINK-37884,2026-143G,2026-07-07T18:00:02.998944,15.61295176,.0001356,97.2852,232.6540,72.0697,289.1832,0,U,69655,999,376,-.35501E-1,-.2604825E-1,0
STARLINK-37876,2026-143H,2026-07-07T18:00:02.998944,15.72062040,.0001604,97.2855,232.6890,65.4088,18.8040,0,U,69656,999,366,-.19826E-1,-.2248685E-1,0
STARLINK-37784,2026-143J,2026-07-07T18:00:02.998944,15.63660297,.0001327,97.2860,232.6637,88.4664,286.4033,0,U,69657,999,366,-.31361E-1,-.2535387E-1,0
STARLINK-37851,2026-143K,2026-07-07T18:00:02.998944,15.70345388,.0001727,97.2854,232.6948,77.9190,20.5762,0,U,69658,999,365,-.23187E-1,-.2471075E-1,0
STARLINK-37229,2026-143L,2026-07-07T18:00:02.998944,15.67751982,.0001327,97.2855,232.6654,66.6745,321.7277,0,U,69659,999,370,-.28394E-1,-.2682982E-1,0
STARLINK-37556,2026-143M,2026-07-07T18:00:02.998944,15.69259806,.0001182,97.2856,232.6763,82.3390,328.0513,0,U,69660,999,370,-.21076E-1,-.2140267E-1,0
STARLINK-37867,2026-143N,2026-07-07T18:00:02.998944,15.69530465,.0001978,97.2853,232.6974,67.9817,34.5390,0,U,69661,999,366,-.26138E-1,-.266256E-1,0
STARLINK-37852,2026-143P,2026-07-07T18:00:02.998944,15.62737944,.0001209,97.2858,232.6521,97.4356,255.7498,0,U,69662,999,366,-.3171E-1,-.2480161E-1,0
STARLINK-37554,2026-143Q,2026-07-07T18:00:02.998944,15.68497236,.000178,97.2855,232.6806,62.8338,2.2273,0,U,69663,999,370,-.26451E-1,-.2592023E-1,0
STARLINK-37830,2026-143R,2026-07-07T18:00:02.998944,15.64953146,.0001156,97.2858,232.6673,80.6296,305.0541,0,U,69664,999,365,-.29866E-1,-.254103E-1,0
STARLINK-37837,2026-143S,2026-07-07T18:00:02.998944,15.70029607,.000153,97.2854,232.6884,77.4499,6.5953,0,U,69665,999,366,-.21122E-1,-.2205279E-1,0
STARLINK-37943,2026-143T,2026-07-07T18:00:02.998944,15.63464308,.0001287,97.2857,232.6647,76.1476,304.2054,0,U,69666,999,366,-.2273E-1,-.1860793E-1,0
STARLINK-37941,2026-143U,2026-07-07T18:00:02.998944,15.68235161,.0001492,97.2855,232.6785,76.9012,345.7486,0,U,69667,999,366,-.26516E-1,-.2573011E-1,0
STARLINK-37930,2026-143V,2026-07-07T18:00:02.998944,15.66071193,.0001185,97.2860,232.6770,87.9256,320.0032,0,U,69668,999,365,-.93738E-2,-.863065E-2,0
