KUIPER-00567            
1 69626U 26140AL  26188.64925266  .00012733  00000+0  34047-3 0  9993
2 69626  51.8778 299.6117 0012778 239.8856 120.0865 15.38354476  4381
KUIPER-00573            
1 69627U 26140AM  26188.66082413  .00014889  00000+0  41025-3 0  9992
2 69627  51.8783 299.6872 0009419 256.0055 103.9885 15.37310895  4384
CENTISPACE-1 GROUP 05 O*
1 69636U 26138J   26188.75663799 -.00000403  00000+0 -12629-3 0  9998
2 69636  55.1385 205.1684 0009061 327.9500  32.0922 14.15844526  2906
VICTUS HAZE PUMA        
1 69646U 26142A   26188.87616196  .00003202  00000+0  14724-3 0  9992
2 69646  97.4475  86.2642 0025211 293.2248  66.6333 15.20813156  2818
HOKUSHIN-1              
1 69648U 98067YH  26188.43161019  .00017670  00000+0  30854-3 0  9996
2 69648  51.6313 199.7545 0006099 301.0821  58.9569 15.50745793  2799
STARLINK-37656          
1 69649U 26143A   26188.75003471 -.02371142  00000+0 -41077-1 0  9993
2 69649  97.2862 232.5619 0001628  72.0613  64.6964 15.54568434  3760
STARLINK-37646          
1 69650U 26143B   26188.75003471 -.01200939  00000+0 -11155-1 0  9993
2 69650  97.2856 232.6685 0001516  57.2873 337.5028 15.69903469  3768
STARLINK-37749          
1 69651U 26143C   26188.75003471 -.02593574  00000+0 -27972-1 0  9999
2 69651  97.2858 232.6719 0001547  64.6087 340.5587 15.67154841  3766
STARLINK-37819          
1 69652U 26143D   26188.75003471 -.02500535  00000+0 -29221-1 0  9994
2 69652  97.2851 232.6569 0001426  97.1230 260.6917 15.65033517  3763
STARLINK-37729          
1 69653U 26143E   26188.75003471 -.00154623  00000+0 -77456-3 0  9991
2 69653  97.2838 232.7023 0000928 149.5529 322.4752 15.82077264  3764
STARLINK-37838          
1 69654U 26143F   26188.75003471 -.02680343  00000+0 -22342-1 0  9999
2 69654  97.2853 232.6804 0001792  59.9933   5.0621 15.73416309  3767
STARLINK-37884          
1 69655U 26143G   26188.75003471 -.02604825  00000+0 -35501-1 0  9992
2 69655  97.2852 232.6540 0001356  72.0697 289.1832 15.61295176  3766
STARLINK-37876          
1 69656U 26143H   26188.75003471 -.02248685  00000+0 -19826-1 0  9993
2 69656  97.2855 232.6890 0001604  65.4088  18.8040 15.72062040  3665
STARLINK-37784          
1 69657U 26143J   26188.75003471 -.02535387  00000+0 -31361-1 0  9990
2 69657  97.2860 232.6637 0001327  88.4664 286.4033 15.63660297  3661
STARLINK-37851          
1 69658U 26143K   26188.75003471 -.02471075  00000+0 -23187-1 0  9991
2 69658  97.2854 232.6948 0001727  77.9190  20.5762 15.70345388  3655
STARLINK-37229          
1 69659U 26143L   26188.75003471 -.02682982  00000+0 -28394-1 0  9998
2 69659  97.2855 232.6654 0001327  66.6745 321.7277 15.67751982  3708
STARLINK-37556          
1 69660U 26143M   26188.75003471 -.02140267  00000+0 -21076-1 0  9995
2 69660  97.2856 232.6763 0001182  82.3390 328.0513 15.69259806  3705
STARLINK-37867          
1 69661U 26143N   26188.75003471 -.02662560  00000+0 -26138-1 0  9995
2 69661  97.2853 232.6974 0001978  67.9817  34.5390 15.69530465  3663
STARLINK-37852          
1 69662U 26143P   26188.75003471 -.02480161  00000+0 -31710-1 0  9993
2 69662  97.2858 232.6521 0001209  97.4356 255.7498 15.62737944  3660
STARLINK-37554          
1 69663U 26143Q   26188.75003471 -.02592023  00000+0 -26451-1 0  9991
2 69663  97.2855 232.6806 0001780  62.8338   2.2273 15.68497236  3708
STARLINK-37830          
1 69664U 26143R   26188.75003471 -.02541030  00000+0 -29866-1 0  9997
2 69664  97.2858 232.6673 0001156  80.6296 305.0541 15.64953146  3651
STARLINK-37837          
1 69665U 26143S   26188.75003471 -.02205279  00000+0 -21122-1 0  9997
2 69665  97.2854 232.6884 0001530  77.4499   6.5953 15.70029607  3661
STARLINK-37943          
1 69666U 26143T   26188.75003471 -.01860793  00000+0 -22730-1 0  9991
2 69666  97.2857 232.6647 0001287  76.1476 304.2054 15.63464308  3665
STARLINK-37941          
1 69667U 26143U   26188.75003471 -.02573011  00000+0 -26516-1 0  9993
2 69667  97.2855 232.6785 0001492  76.9012 345.7486 15.68235161  3666
STARLINK-37930          
1 69668U 26143V   26188.75003471 -.00863065  00000+0 -93738-2 0  9994
2 69668  97.2860 232.6770 0001185  87.9256 320.0032 15.66071193  3651
